start=new Date('2022-08-27T00:00:00.000Z').valueOf();
sats=[{"ECCENTRICITY":"0.00018440","OBJECT_TYPE":"PAYLOAD","CENTER_NAME":"EARTH","APOAPSIS":"562.562","CLASSIFICATION_TYPE":"U","EPOCH":"2022-08-26T22:00:00.999936","REF_FRAME":"TEME","MEAN_MOTION":"15.01821227","PERIOD":"95.884","ELEMENT_SET_NO":"999","TIME_SYSTEM":"UTC","MEAN_ELEMENT_THEORY":"SGP4","MEAN_ANOMALY":"165.3604","SITE":"AFWTR","FILE":"3548620","DECAY_DATE":null,"TLE_LINE2":"2 53078  97.6555  59.2002 0001844  78.4175 165.3604 15.01821227  1307","EPHEMERIS_TYPE":"0","RA_OF_ASC_NODE":"59.2002","MEAN_MOTION_DDOT":"0.0000000000000","GP_ID":"211081200","NORAD_CAT_ID":"53078","INCLINATION":"97.6555","OBJECT_NAME":"STARLINK-4322","SEMIMAJOR_AXIS":"6939.417","MEAN_MOTION_DOT":"-0.00663078","ARG_OF_PERICENTER":"78.4175","TLE_LINE1":"1 53078U 22077AM  22238.91667824 -.00663078  00000-0 -54395-1 0  9990","COUNTRY_CODE":"US","LAUNCH_DATE":"2022-07-11","BSTAR":"-0.05439500000000","RCS_SIZE":"LARGE","PERIAPSIS":"560.003","OBJECT_ID":"2022-077AM","REV_AT_EPOCH":"130"},{"TIME_SYSTEM":"UTC","PERIOD":"95.780","ELEMENT_SET_NO":"999","FILE":"3548620","DECAY_DATE":null,"SITE":"AFWTR","MEAN_ANOMALY":"196.5202","MEAN_ELEMENT_THEORY":"SGP4","CENTER_NAME":"EARTH","APOAPSIS":"557.680","OBJECT_TYPE":"PAYLOAD","ECCENTRICITY":"0.00020010","REF_FRAME":"TEME","MEAN_MOTION":"15.03442539","CLASSIFICATION_TYPE":"U","EPOCH":"2022-08-26T22:00:00.999936","BSTAR":"-0.09763800000000","LAUNCH_DATE":"2022-07-11","ARG_OF_PERICENTER":"74.3116","TLE_LINE1":"1 53079U 22077AN  22238.91667824 -.01230935  00000-0 -97638-1 0  9991","COUNTRY_CODE":"US","RCS_SIZE":"LARGE","PERIAPSIS":"554.905","OBJECT_ID":"2022-077AN","REV_AT_EPOCH":"130","MEAN_MOTION_DDOT":"0.0000000000000","RA_OF_ASC_NODE":"59.1990","EPHEMERIS_TYPE":"0","GP_ID":"211080499","TLE_LINE2":"2 53079  97.6555  59.1990 0002001  74.3116 196.5202 15.03442539  1306","INCLINATION":"97.6555","OBJECT_NAME":"STARLINK-4327","MEAN_MOTION_DOT":"-0.01230935","SEMIMAJOR_AXIS":"6934.428","NORAD_CAT_ID":"53079"},{"GP_ID":"211081054","MEAN_MOTION_DDOT":"0.0000000000000","RA_OF_ASC_NODE":"59.1998","EPHEMERIS_TYPE":"0","TLE_LINE2":"2 53080  97.6555  59.1998 0002125  57.2324 195.7744 15.02491867  1303","MEAN_MOTION_DOT":"-0.01138142","SEMIMAJOR_AXIS":"6937.352","OBJECT_NAME":"STARLINK-4330","INCLINATION":"97.6555","NORAD_CAT_ID":"53080","BSTAR":"-0.09321600000000","LAUNCH_DATE":"2022-07-11","TLE_LINE1":"1 53080U 22077AP  22238.91667824 -.01138142  00000-0 -93216-1 0  9998","COUNTRY_CODE":"US","ARG_OF_PERICENTER":"57.2324","REV_AT_EPOCH":"130","PERIAPSIS":"557.743","OBJECT_ID":"2022-077AP","RCS_SIZE":"LARGE","APOAPSIS":"560.692","CENTER_NAME":"EARTH","ECCENTRICITY":"0.00021250","OBJECT_TYPE":"PAYLOAD","MEAN_MOTION":"15.02491867","REF_FRAME":"TEME","EPOCH":"2022-08-26T22:00:00.999936","CLASSIFICATION_TYPE":"U","TIME_SYSTEM":"UTC","ELEMENT_SET_NO":"999","PERIOD":"95.841","FILE":"3548620","DECAY_DATE":null,"SITE":"AFWTR","MEAN_ANOMALY":"195.7744","MEAN_ELEMENT_THEORY":"SGP4"},{"TIME_SYSTEM":"UTC","PERIOD":"95.670","ELEMENT_SET_NO":"999","MEAN_ANOMALY":"186.9555","FILE":"3548620","DECAY_DATE":null,"SITE":"AFWTR","MEAN_ELEMENT_THEORY":"SGP4","CENTER_NAME":"EARTH","APOAPSIS":"552.287","ECCENTRICITY":"0.00018880","OBJECT_TYPE":"PAYLOAD","MEAN_MOTION":"15.05172410","REF_FRAME":"TEME","CLASSIFICATION_TYPE":"U","EPOCH":"2022-08-26T22:00:00.999936","LAUNCH_DATE":"2022-07-11","BSTAR":"-0.07613000000000","ARG_OF_PERICENTER":"94.5486","TLE_LINE1":"1 53081U 22077AQ  22238.91667824 -.01008082  00000-0 -76130-1 0  9994","COUNTRY_CODE":"US","RCS_SIZE":"LARGE","PERIAPSIS":"549.670","OBJECT_ID":"2022-077AQ","REV_AT_EPOCH":"130","EPHEMERIS_TYPE":"0","RA_OF_ASC_NODE":"59.1968","MEAN_MOTION_DDOT":"0.0000000000000","GP_ID":"211080771","TLE_LINE2":"2 53081  97.6552  59.1968 0001888  94.5486 186.9555 15.05172410  1301","OBJECT_NAME":"STARLINK-4326","INCLINATION":"97.6552","SEMIMAJOR_AXIS":"6929.114","MEAN_MOTION_DOT":"-0.01008082","NORAD_CAT_ID":"53081"},{"OBJECT_TYPE":"PAYLOAD","ECCENTRICITY":"0.00019350","APOAPSIS":"555.716","CENTER_NAME":"EARTH","EPOCH":"2022-08-26T22:00:00.999936","CLASSIFICATION_TYPE":"U","REF_FRAME":"TEME","MEAN_MOTION":"15.04066491","ELEMENT_SET_NO":"999","PERIOD":"95.740","TIME_SYSTEM":"UTC","MEAN_ELEMENT_THEORY":"SGP4","DECAY_DATE":null,"FILE":"3548620","SITE":"AFWTR","MEAN_ANOMALY":"201.9004","TLE_LINE2":"2 53082  97.6555  59.1982 0001935  76.7931 201.9004 15.04066491  1308","GP_ID":"211081364","MEAN_MOTION_DDOT":"0.0000000000000","EPHEMERIS_TYPE":"0","RA_OF_ASC_NODE":"59.1982","NORAD_CAT_ID":"53082","MEAN_MOTION_DOT":"-0.01231000","SEMIMAJOR_AXIS":"6932.510","OBJECT_NAME":"STARLINK-4321","INCLINATION":"97.6555","COUNTRY_CODE":"US","TLE_LINE1":"1 53082U 22077AR  22238.91667824 -.01231000  00000-0 -96031-1 0  9995","ARG_OF_PERICENTER":"76.7931","BSTAR":"-0.09603100000000","LAUNCH_DATE":"2022-07-11","PERIAPSIS":"553.033","OBJECT_ID":"2022-077AR","REV_AT_EPOCH":"130","RCS_SIZE":"LARGE"},{"ELEMENT_SET_NO":"999","PERIOD":"95.672","TIME_SYSTEM":"UTC","MEAN_ELEMENT_THEORY":"SGP4","FILE":"3548620","SITE":"AFWTR","DECAY_DATE":null,"MEAN_ANOMALY":"238.4328","OBJECT_TYPE":"PAYLOAD","ECCENTRICITY":"0.00021200","APOAPSIS":"552.529","CENTER_NAME":"EARTH","EPOCH":"2022-08-26T22:00:00.999936","CLASSIFICATION_TYPE":"U","REF_FRAME":"TEME","MEAN_MOTION":"15.05145724","TLE_LINE1":"1 53083U 22077AS  22238.91667824  .00073279  00000-0  50989-2 0  9998","COUNTRY_CODE":"US","ARG_OF_PERICENTER":"68.5062","BSTAR":"0.00509890000000","LAUNCH_DATE":"2022-07-11","REV_AT_EPOCH":"130","PERIAPSIS":"549.591","OBJECT_ID":"2022-077AS","RCS_SIZE":"LARGE","TLE_LINE2":"2 53083  97.6572  59.1936 0002120  68.5062 238.4328 15.05145724  1300","GP_ID":"211080916","MEAN_MOTION_DDOT":"0.0000000000000","RA_OF_ASC_NODE":"59.1936","EPHEMERIS_TYPE":"0","NORAD_CAT_ID":"53083","MEAN_MOTION_DOT":"0.00073279","SEMIMAJOR_AXIS":"6929.195","OBJECT_NAME":"STARLINK-4251","INCLINATION":"97.6572"},{"EPOCH":"2022-08-26T22:00:00.999936","CLASSIFICATION_TYPE":"U","MEAN_MOTION":"15.05226678","REF_FRAME":"TEME","OBJECT_TYPE":"PAYLOAD","ECCENTRICITY":"0.00018470","APOAPSIS":"552.092","CENTER_NAME":"EARTH","MEAN_ELEMENT_THEORY":"SGP4","FILE":"3548620","DECAY_DATE":null,"SITE":"AFWTR","MEAN_ANOMALY":"193.4299","ELEMENT_SET_NO":"999","PERIOD":"95.667","TIME_SYSTEM":"UTC","NORAD_CAT_ID":"53084","MEAN_MOTION_DOT":"-0.00956007","SEMIMAJOR_AXIS":"6928.947","OBJECT_NAME":"STARLINK-4319","INCLINATION":"97.6551","TLE_LINE2":"2 53084  97.6551  59.1969 0001847  88.8912 193.4299 15.05226678  1303","GP_ID":"211080637","MEAN_MOTION_DDOT":"0.0000000000000","RA_OF_ASC_NODE":"59.1969","EPHEMERIS_TYPE":"0","PERIAPSIS":"549.532","OBJECT_ID":"2022-077AT","REV_AT_EPOCH":"130","RCS_SIZE":"LARGE","COUNTRY_CODE":"US","TLE_LINE1":"1 53084U 22077AT  22238.91667824 -.00956007  00000-0 -72710-1 0  9995","ARG_OF_PERICENTER":"88.8912","BSTAR":"-0.07271000000000","LAUNCH_DATE":"2022-07-11"},{"TLE_LINE2":"2 53085  97.6549  59.1969 0001667  69.0860 231.4810 15.05264156  1309","GP_ID":"211080354","EPHEMERIS_TYPE":"0","RA_OF_ASC_NODE":"59.1969","MEAN_MOTION_DDOT":"0.0000000000000","NORAD_CAT_ID":"53085","SEMIMAJOR_AXIS":"6928.832","MEAN_MOTION_DOT":"-0.00615169","OBJECT_NAME":"STARLINK-4324","INCLINATION":"97.6549","TLE_LINE1":"1 53085U 22077AU  22238.91667824 -.00615169  00000-0 -45819-1 0  9997","COUNTRY_CODE":"US","ARG_OF_PERICENTER":"69.0860","LAUNCH_DATE":"2022-07-11","BSTAR":"-0.04581900000000","PERIAPSIS":"549.542","OBJECT_ID":"2022-077AU","REV_AT_EPOCH":"130","RCS_SIZE":"LARGE","OBJECT_TYPE":"PAYLOAD","ECCENTRICITY":"0.00016670","APOAPSIS":"551.852","CENTER_NAME":"EARTH","EPOCH":"2022-08-26T22:00:00.999936","CLASSIFICATION_TYPE":"U","REF_FRAME":"TEME","MEAN_MOTION":"15.05264156","ELEMENT_SET_NO":"999","PERIOD":"95.664","TIME_SYSTEM":"UTC","MEAN_ELEMENT_THEORY":"SGP4","MEAN_ANOMALY":"231.4810","DECAY_DATE":null,"FILE":"3548620","SITE":"AFWTR"},{"RCS_SIZE":"LARGE","PERIAPSIS":"549.726","REV_AT_EPOCH":"130","OBJECT_ID":"2022-077AV","LAUNCH_DATE":"2022-07-11","BSTAR":"-0.01254600000000","ARG_OF_PERICENTER":"88.2926","TLE_LINE1":"1 53086U 22077AV  22238.91667824 -.00174596  00000-0 -12546-1 0  9993","COUNTRY_CODE":"US","OBJECT_NAME":"STARLINK-4318","INCLINATION":"97.6545","SEMIMAJOR_AXIS":"6929.039","MEAN_MOTION_DOT":"-0.00174596","NORAD_CAT_ID":"53086","RA_OF_ASC_NODE":"59.1965","EPHEMERIS_TYPE":"0","MEAN_MOTION_DDOT":"0.0000000000000","GP_ID":"211081201","TLE_LINE2":"2 53086  97.6545  59.1965 0001700  88.2926 199.6250 15.05196560  1302","MEAN_ANOMALY":"199.6250","DECAY_DATE":null,"FILE":"3548620","SITE":"AFWTR","MEAN_ELEMENT_THEORY":"SGP4","TIME_SYSTEM":"UTC","PERIOD":"95.669","ELEMENT_SET_NO":"999","MEAN_MOTION":"15.05196560","REF_FRAME":"TEME","CLASSIFICATION_TYPE":"U","EPOCH":"2022-08-26T22:00:00.999936","CENTER_NAME":"EARTH","APOAPSIS":"552.082","OBJECT_TYPE":"PAYLOAD","ECCENTRICITY":"0.00017000"},{"CENTER_NAME":"EARTH","APOAPSIS":"552.384","ECCENTRICITY":"0.00018790","OBJECT_TYPE":"PAYLOAD","REF_FRAME":"TEME","MEAN_MOTION":"15.05138560","CLASSIFICATION_TYPE":"U","EPOCH":"2022-08-26T22:00:00.999936","TIME_SYSTEM":"UTC","PERIOD":"95.672","ELEMENT_SET_NO":"999","FILE":"3548620","DECAY_DATE":null,"SITE":"AFWTR","MEAN_ANOMALY":"255.2253","MEAN_ELEMENT_THEORY":"SGP4","MEAN_MOTION_DDOT":"0.0000000000000","EPHEMERIS_TYPE":"0","RA_OF_ASC_NODE":"59.1979","GP_ID":"211080500","TLE_LINE2":"2 53087  97.6553  59.1979 0001879  66.4610 255.2253 15.05138560  1300","OBJECT_NAME":"STARLINK-4329","INCLINATION":"97.6553","MEAN_MOTION_DOT":"-0.01006955","SEMIMAJOR_AXIS":"6929.217","NORAD_CAT_ID":"53087","BSTAR":"-0.07610800000000","LAUNCH_DATE":"2022-07-11","ARG_OF_PERICENTER":"66.4610","TLE_LINE1":"1 53087U 22077AW  22238.91667824 -.01006955  00000-0 -76108-1 0  9992","COUNTRY_CODE":"US","RCS_SIZE":"LARGE","PERIAPSIS":"549.780","REV_AT_EPOCH":"130","OBJECT_ID":"2022-077AW"}];
